0 SL-14 DEB
1 19450U 78100AH  13282.57891312  .00000068  00000-0  75504-3 0  4293
2 19450 082.5467 131.4471 0012819 185.1803 201.7833 11.98027489103817
0 SL-14 DEB
1 19450U 78100AH  13286.03223532  .00000137  00000-0  16240-2 0  4301
2 19450 082.5459 129.4886 0012936 178.2803 335.5954 11.98027428104227
0 SL-14 DEB
1 19450U 78100AH  13288.03690068  .00000055  00000-0  58436-3 0  4319
2 19450 082.5457 128.3515 0013004 174.2169 341.5595 11.98028665104468
0 SL-14 DEB
1 19450U 78100AH  13290.51248182 -.00000062  00000-0 -90428-3 0  4329
2 19450 082.5457 126.9474 0013080 169.2839 218.4705 11.98029928104769
0 SL-14 DEB
1 19450U 78100AH  13292.96427626 -.00000060  00000-0 -87920-3 0  4334
2 19450 082.5459 125.5567 0013172 164.4551 352.7470 11.98029515105055
0 SL-14 DEB
1 19450U 78100AH  13294.96826307  .00000038  00000-0  37057-3 0  4345
2 19450 082.5459 124.4200 0013237 160.5817 355.6145 11.98028539105293
